{
  "type": "FeatureCollection",
  "features": [
    {
      "type": "Feature",
      "properties": {
        "norad_id": 64751,
        "name": "PROGRESS-MS 31",
        "group": "stations",
        "lat": 31.03780062625526,
        "lon": -108.88721206554351,
        "alt_km": 415.3119789621569,
        "timestamp": "2025-12-21T09:37:21.406066+00:00",
        "meta_object_name": "PROGRESS-MS 31",
        "meta_object_id": "2025-146A",
        "meta_epoch": "2025-12-20T16:00:06.135552",
        "meta_mean_motion": 15.49686708,
        "meta_eccentricity": 0.00031636,
        "meta_inclination": 51.6321,
        "meta_ra_of_asc_node": 103.2234,
        "meta_arg_of_pericenter": 277.4707,
        "meta_mean_anomaly": 82.5922,
        "meta_ephemeris_type": 0,
        "meta_classification_type": "U",
        "meta_norad_cat_id": 64751,
        "meta_element_set_no": 999,
        "meta_rev_at_epoch": 675,
        "meta_bstar": 0.00013711052,
        "meta_mean_motion_dot": 7.293e-05,
        "meta_mean_motion_ddot": 0,
        "tle_line1": "1 64751U 25146A   25354.66673768  .00007293  00000+0  13711-3 0  9995",
        "tle_line2": "2 64751  51.6321 103.2234 0003163 277.4707  82.5922 15.49686708  6755"
      },
      "geometry": {
        "type": "Point",
        "coordinates": [
          -108.88721206554351,
          31.03780062625526
        ]
      }
    },
    {
      "type": "Feature",
      "properties": {
        "norad_id": 64786,
        "name": "TIANZHOU-9",
        "group": "stations",
        "lat": -28.438656863156396,
        "lon": -178.06466385394228,
        "alt_km": 394.0358471879272,
        "timestamp": "2025-12-21T09:37:21.406076+00:00",
        "meta_object_name": "TIANZHOU-9",
        "meta_object_id": "2025-149A",
        "meta_epoch": "2025-12-20T23:26:14.890272",
        "meta_mean_motion": 15.59514827,
        "meta_eccentricity": 0.00077445,
        "meta_inclination": 41.4685,
        "meta_ra_of_asc_node": 326.6888,
        "meta_arg_of_pericenter": 103.1948,
        "meta_mean_anomaly": 256.9755,
        "meta_ephemeris_type": 0,
        "meta_classification_type": "U",
        "meta_norad_cat_id": 64786,
        "meta_element_set_no": 999,
        "meta_rev_at_epoch": 25530,
        "meta_bstar": 0.00017446348,
        "meta_mean_motion_dot": 0.00013949,
        "meta_mean_motion_ddot": 0,
        "tle_line1": "1 64786U 25149A   25354.97656123  .00013949  00000+0  17446-3 0  9990",
        "tle_line2": "2 64786  41.4685 326.6888 0007744 103.1948 256.9755 15.59514827255301"
      },
      "geometry": {
        "type": "Point",
        "coordinates": [
          -178.06466385394228,
          -28.438656863156396
        ]
      }
    },
    {
      "type": "Feature",
      "properties": {
        "norad_id": 65077,
        "name": "CREW DRAGON 11",
        "group": "stations",
        "lat": 31.037799690720586,
        "lon": -108.88721091827195,
        "alt_km": 415.31197908169815,
        "timestamp": "2025-12-21T09:37:21.406087+00:00",
        "meta_object_name": "CREW DRAGON 11",
        "meta_object_id": "2025-166A",
        "meta_epoch": "2025-12-20T16:00:06.135552",
        "meta_mean_motion": 15.49686708,
        "meta_eccentricity": 0.00031636,
        "meta_inclination": 51.6321,
        "meta_ra_of_asc_node": 103.2234,
        "meta_arg_of_pericenter": 277.4707,
        "meta_mean_anomaly": 82.5922,
        "meta_ephemeris_type": 0,
        "meta_classification_type": "U",
        "meta_norad_cat_id": 65077,
        "meta_element_set_no": 999,
        "meta_rev_at_epoch": 214,
        "meta_bstar": 0.00013711052,
        "meta_mean_motion_dot": 7.293e-05,
        "meta_mean_motion_ddot": 0,
        "tle_line1": "1 65077U 25166A   25354.66673768  .00007293  00000+0  13711-3 0  9999",
        "tle_line2": "2 65077  51.6321 103.2234 0003163 277.4707  82.5922 15.49686708  2146"
      },
      "geometry": {
        "type": "Point",
        "coordinates": [
          -108.88721091827195,
          31.037799690720586
        ]
      }
    },
    {
      "type": "Feature",
      "properties": {
        "norad_id": 65304,
        "name": "DRAGON CRS-33",
        "group": "stations",
        "lat": 31.037799245228847,
        "lon": -108.88721037195336,
        "alt_km": 415.3119791386216,
        "timestamp": "2025-12-21T09:37:21.406097+00:00",
        "meta_object_name": "DRAGON CRS-33",
        "meta_object_id": "2025-186A",
        "meta_epoch": "2025-12-20T16:00:06.135552",
        "meta_mean_motion": 15.49686708,
        "meta_eccentricity": 0.00031636,
        "meta_inclination": 51.6321,
        "meta_ra_of_asc_node": 103.2234,
        "meta_arg_of_pericenter": 277.4707,
        "meta_mean_anomaly": 82.5922,
        "meta_ephemeris_type": 0,
        "meta_classification_type": "U",
        "meta_norad_cat_id": 65304,
        "meta_element_set_no": 999,
        "meta_rev_at_epoch": 11,
        "meta_bstar": 0.00013711052,
        "meta_mean_motion_dot": 7.293e-05,
        "meta_mean_motion_ddot": 0,
        "tle_line1": "1 65304U 25186A   25354.66673768  .00007293  00000+0  13711-3 0  9994",
        "tle_line2": "2 65304  51.6321 103.2234 0003163 277.4707  82.5922 15.49686708   114"
      },
      "geometry": {
        "type": "Point",
        "coordinates": [
          -108.88721037195336,
          31.037799245228847
        ]
      }
    },
    {
      "type": "Feature",
      "properties": {
        "norad_id": 65586,
        "name": "PROGRESS-MS 32",
        "group": "stations",
        "lat": 31.037798799735977,
        "lon": -108.88720982563338,
        "alt_km": 415.3119791955478,
        "timestamp": "2025-12-21T09:37:21.406107+00:00",
        "meta_object_name": "PROGRESS-MS 32",
        "meta_object_id": "2025-204A",
        "meta_epoch": "2025-12-20T16:00:06.135552",
        "meta_mean_motion": 15.49686708,
        "meta_eccentricity": 0.00031636,
        "meta_inclination": 51.6321,
        "meta_ra_of_asc_node": 103.2234,
        "meta_arg_of_pericenter": 277.4707,
        "meta_mean_anomaly": 82.5922,
        "meta_ephemeris_type": 0,
        "meta_classification_type": "U",
        "meta_norad_cat_id": 65586,
        "meta_element_set_no": 999,
        "meta_rev_at_epoch": 27,
        "meta_bstar": 0.00013711052,
        "meta_mean_motion_dot": 7.293e-05,
        "meta_mean_motion_ddot": 0,
        "tle_line1": "1 65586U 25204A   25354.66673768  .00007293  00000+0  13711-3 0  9997",
        "tle_line2": "2 65586  51.6321 103.2234 0003163 277.4707  82.5922 15.49686708   273"
      },
      "geometry": {
        "type": "Point",
        "coordinates": [
          -108.88720982563338,
          31.037798799735977
        ]
      }
    },
    {
      "type": "Feature",
      "properties": {
        "norad_id": 65616,
        "name": "CYGNUS NG-23",
        "group": "stations",
        "lat": 31.037798354243098,
        "lon": -108.88720927931338,
        "alt_km": 415.31197925247307,
        "timestamp": "2025-12-21T09:37:21.406117+00:00",
        "meta_object_name": "CYGNUS NG-23",
        "meta_object_id": "2025-208A",
        "meta_epoch": "2025-12-20T16:00:06.135552",
        "meta_mean_motion": 15.49686708,
        "meta_eccentricity": 0.00031636,
        "meta_inclination": 51.6321,
        "meta_ra_of_asc_node": 103.2234,
        "meta_arg_of_pericenter": 277.4707,
        "meta_mean_anomaly": 82.5922,
        "meta_ephemeris_type": 0,
        "meta_classification_type": "U",
        "meta_norad_cat_id": 65616,
        "meta_element_set_no": 999,
        "meta_rev_at_epoch": 22,
        "meta_bstar": 0.00013711052,
        "meta_mean_motion_dot": 7.293e-05,
        "meta_mean_motion_ddot": 0,
        "tle_line1": "1 65616U 25208A   25354.66673768  .00007293  00000+0  13711-3 0  9995",
        "tle_line2": "2 65616  51.6321 103.2234 0003163 277.4707  82.5922 15.49686708   222"
      },
      "geometry": {
        "type": "Point",
        "coordinates": [
          -108.88720927931338,
          31.037798354243098
        ]
      }
    },
    {
      "type": "Feature",
      "properties": {
        "norad_id": 65729,
        "name": "DRAGONFLY",
        "group": "stations",
        "lat": 31.296093772282017,
        "lon": -117.48264413524086,
        "alt_km": 346.419349006811,
        "timestamp": "2025-12-21T09:37:21.406128+00:00",
        "meta_object_name": "DRAGONFLY",
        "meta_object_id": "1998-067XH",
        "meta_epoch": "2025-12-20T23:53:54.948768",
        "meta_mean_motion": 15.74592316,
        "meta_eccentricity": 0.0007599,
        "meta_inclination": 51.6248,
        "meta_ra_of_asc_node": 93.4014,
        "meta_arg_of_pericenter": 329.0075,
        "meta_mean_anomaly": 31.0474,
        "meta_ephemeris_type": 0,
        "meta_classification_type": "U",
        "meta_norad_cat_id": 65729,
        "meta_element_set_no": 999,
        "meta_rev_at_epoch": 1446,
        "meta_bstar": 0.00097795,
        "meta_mean_motion_dot": 0.0014816,
        "meta_mean_motion_ddot": 0,
        "tle_line1": "1 65729U 98067XH  25354.99577487  .00148160  00000+0  97795-3 0  9993",
        "tle_line2": "2 65729  51.6248  93.4014 0007599 329.0075  31.0474 15.74592316 14461"
      },
      "geometry": {
        "type": "Point",
        "coordinates": [
          -117.48264413524086,
          31.296093772282017
        ]
      }
    }
  ]
}